<?xml version="1.0" encoding="UTF-8"?>
<seiscomp xmlns="http://geofon.gfz-potsdam.de/ns/seiscomp3-schema/0.11" version="0.11">
  <EventParameters>
    <pick publicID="smi:ch.ethz.sed/coseismiq-pb/Pick/20200703152809.659507.11142">
      <time>
        <value>2018-12-24T09:45:48.5Z</value>
      </time>
      <waveformID networkCode="SI" stationCode="EDA" locationCode="00" channelCode="HHZ"/>
      <filterID>BW(4,3,50)</filterID>
      <methodID>AIC</methodID>
      <phaseHint>P</phaseHint>
      <evaluationMode>automatic</evaluationMode>
      <creationInfo>
        <agencyID>Swiss Seismological Service</agencyID>
        <author>scautopick@sc3-dev</author>
        <creationTime>2020-07-03T15:28:09.659537Z</creationTime>
      </creationInfo>
    </pick>
    <pick publicID="smi:ch.ethz.sed/coseismiq-pb/Pick/20200703152809.600326.11135">
      <time>
        <value>2018-12-24T09:45:48.985Z</value>
      </time>
      <waveformID networkCode="ON" stationCode="INNST" locationCode="00" channelCode="HHZ"/>
      <filterID>BW(4,2,50)</filterID>
      <methodID>AIC</methodID>
      <phaseHint>P</phaseHint>
      <evaluationMode>automatic</evaluationMode>
      <creationInfo>
        <agencyID>Swiss Seismological Service</agencyID>
        <author>scautopick@sc3-dev</author>
        <creationTime>2020-07-03T15:28:09.600356Z</creationTime>
      </creationInfo>
    </pick>
    <pick publicID="smi:ch.ethz.sed/coseismiq-pb/Pick/20200703152809.572559.11130">
      <time>
        <value>2018-12-24T09:45:49.155Z</value>
      </time>
      <waveformID networkCode="2C" stationCode="GAN02" channelCode="HHN"/>
      <filterID>BW(4,2,50)</filterID>
      <methodID>L2-AIC-GRID</methodID>
      <phaseHint>S</phaseHint>
      <evaluationMode>automatic</evaluationMode>
      <creationInfo>
        <agencyID>Swiss Seismological Service</agencyID>
        <author>scautopick@sc3-dev</author>
        <creationTime>2020-07-03T15:28:09.572588Z</creationTime>
      </creationInfo>
      <comment>
        <text>smi:ch.ethz.sed/coseismiq-pb/Pick/20200703152809.570901.11128</text>
        <id>RefPickID</id>
      </comment>
    </pick>
    <pick publicID="smi:ch.ethz.sed/coseismiq-pb/Pick/20200703152809.570901.11128">
      <time>
        <value>2018-12-24T09:45:48.245Z</value>
      </time>
      <waveformID networkCode="2C" stationCode="GAN02" channelCode="HHZ"/>
      <filterID>BW(4,2,50)</filterID>
      <methodID>AIC</methodID>
      <phaseHint>P</phaseHint>
      <evaluationMode>automatic</evaluationMode>
      <creationInfo>
        <agencyID>Swiss Seismological Service</agencyID>
        <author>scautopick@sc3-dev</author>
        <creationTime>2020-07-03T15:28:09.57093Z</creationTime>
      </creationInfo>
    </pick>
    <pick publicID="smi:ch.ethz.sed/coseismiq-pb/Pick/20200703152809.616349.11139">
      <time>
        <value>2018-12-24T09:45:49.0000Z</value>
      </time>
      <waveformID networkCode="2C" stationCode="OLK26" channelCode="EHZ"/>
      <filterID>BW(4,2,50)</filterID>
      <methodID>AIC</methodID>
      <phaseHint>P</phaseHint>
      <evaluationMode>automatic</evaluationMode>
      <creationInfo>
        <agencyID>Swiss Seismological Service</agencyID>
        <author>scautopick@sc3-dev</author>
        <creationTime>2020-07-03T15:28:09.616378Z</creationTime>
      </creationInfo>
    </pick>
    <pick publicID="smi:ch.ethz.sed/coseismiq-pb/Pick/20200703152809.535975.11121">
      <time>
        <value>2018-12-24T09:45:47.825Z</value>
      </time>
      <waveformID networkCode="ON" stationCode="KOLDU" locationCode="00" channelCode="HHZ"/>
      <filterID>BW(4,2,50)</filterID>
      <methodID>AIC</methodID>
      <phaseHint>P</phaseHint>
      <evaluationMode>automatic</evaluationMode>
      <creationInfo>
        <agencyID>Swiss Seismological Service</agencyID>
        <author>scautopick@sc3-dev</author>
        <creationTime>2020-07-03T15:28:09.536006Z</creationTime>
      </creationInfo>
    </pick>
    <pick publicID="smi:ch.ethz.sed/coseismiq-pb/Pick/20200703152809.531304.11119">
      <time>
        <value>2018-12-24T09:45:47.68Z</value>
      </time>
      <waveformID networkCode="ON" stationCode="SKEGG" locationCode="00" channelCode="HHZ"/>
      <filterID>BW(4,2,50)</filterID>
      <methodID>AIC</methodID>
      <phaseHint>P</phaseHint>
      <evaluationMode>automatic</evaluationMode>
      <creationInfo>
        <agencyID>Swiss Seismological Service</agencyID>
        <author>scautopick@sc3-dev</author>
        <creationTime>2020-07-03T15:28:09.531349Z</creationTime>
      </creationInfo>
    </pick>
    <pick publicID="smi:ch.ethz.sed/coseismiq-pb/Pick/20200703152809.595763.11134">
      <time>
        <value>2018-12-24T09:45:49.68Z</value>
      </time>
      <waveformID networkCode="2C" stationCode="KAT03" channelCode="HHN"/>
      <filterID>BW(4,2,50)</filterID>
      <methodID>L2-AIC-GRID</methodID>
      <phaseHint>S</phaseHint>
      <evaluationMode>automatic</evaluationMode>
      <creationInfo>
        <agencyID>Swiss Seismological Service</agencyID>
        <author>scautopick@sc3-dev</author>
        <creationTime>2020-07-03T15:28:09.595791Z</creationTime>
      </creationInfo>
      <comment>
        <text>smi:ch.ethz.sed/coseismiq-pb/Pick/20200703152809.59375.11132</text>
        <id>RefPickID</id>
      </comment>
    </pick>
    <pick publicID="smi:ch.ethz.sed/coseismiq-pb/Pick/20200703152809.59375.11132">
      <time>
        <value>2018-12-24T09:45:48.73Z</value>
      </time>
      <waveformID networkCode="2C" stationCode="KAT03" channelCode="HHZ"/>
      <filterID>BW(4,2,50)</filterID>
      <methodID>AIC</methodID>
      <phaseHint>P</phaseHint>
      <evaluationMode>automatic</evaluationMode>
      <creationInfo>
        <agencyID>Swiss Seismological Service</agencyID>
        <author>scautopick@sc3-dev</author>
        <creationTime>2020-07-03T15:28:09.593787Z</creationTime>
      </creationInfo>
    </pick>
    <pick publicID="smi:ch.ethz.sed/coseismiq-pb/Pick/20200703152809.562174.11126">
      <time>
        <value>2018-12-24T09:45:47.7985Z</value>
      </time>
      <waveformID networkCode="ON" stationCode="NESJV" locationCode="00" channelCode="HHZ"/>
      <filterID>BW(4,2,50)</filterID>
      <methodID>AIC</methodID>
      <phaseHint>P</phaseHint>
      <evaluationMode>automatic</evaluationMode>
      <creationInfo>
        <agencyID>Swiss Seismological Service</agencyID>
        <author>scautopick@sc3-dev</author>
        <creationTime>2020-07-03T15:28:09.562203Z</creationTime>
      </creationInfo>
    </pick>
    <pick publicID="smi:ch.ethz.sed/coseismiq-pb/Pick/20200703152809.55883.11124">
      <time>
        <value>2018-12-24T09:45:48.83Z</value>
      </time>
      <waveformID networkCode="2C" stationCode="OLF42" locationCode="00" channelCode="HHZ"/>
      <filterID>BW(4,2,50)</filterID>
      <methodID>AIC</methodID>
      <phaseHint>P</phaseHint>
      <evaluationMode>automatic</evaluationMode>
      <creationInfo>
        <agencyID>Swiss Seismological Service</agencyID>
        <author>scautopick@sc3-dev</author>
        <creationTime>2020-07-03T15:28:09.558858Z</creationTime>
      </creationInfo>
    </pick>
    <amplitude publicID="smi:ch.ethz.sed/coseismiq-pb/Amplitude/20201206134301.178953.19508">
      <type>ML</type>
      <amplitude>
        <value>0.0008798907788</value>
        <lowerUncertainty>0.0002619555181</lowerUncertainty>
        <upperUncertainty>0.0002619555181</upperUncertainty>
      </amplitude>
      <timeWindow>
        <reference>2018-12-24T09:45:49.68Z</reference>
        <begin>-2.179999</begin>
        <end>6.82</end>
      </timeWindow>
      <pickID>smi:ch.ethz.sed/coseismiq-pb/Pick/20200703152809.659507.11142</pickID>
      <waveformID networkCode="SI" stationCode="EDA" locationCode="00" channelCode="HH"/>
      <creationInfo>
        <agencyID>Swiss Seismological Service</agencyID>
        <author>scamp@sc3-dev</author>
        <creationTime>2020-12-06T13:43:01.179274Z</creationTime>
      </creationInfo>
    </amplitude>
    <amplitude publicID="smi:ch.ethz.sed/coseismiq-pb/Amplitude/20201206134300.934032.19507">
      <type>ML</type>
      <amplitude>
        <value>0.271420566</value>
        <lowerUncertainty>0.01012763711</lowerUncertainty>
        <upperUncertainty>0.01012763711</upperUncertainty>
      </amplitude>
      <timeWindow>
        <reference>2018-12-24T09:45:48.315Z</reference>
        <begin>-1.634999</begin>
        <end>7.365</end>
      </timeWindow>
      <pickID>smi:ch.ethz.sed/coseismiq-pb/Pick/20200703152809.531304.11119</pickID>
      <waveformID networkCode="ON" stationCode="SKEGG" locationCode="00" channelCode="HH"/>
      <creationInfo>
        <agencyID>Swiss Seismological Service</agencyID>
        <author>scamp@sc3-dev</author>
        <creationTime>2020-12-06T13:43:00.934147Z</creationTime>
      </creationInfo>
    </amplitude>
    <amplitude publicID="smi:ch.ethz.sed/coseismiq-pb/Amplitude/20201206134300.13284.19505">
      <type>ML</type>
      <amplitude>
        <value>0.2296837414</value>
        <lowerUncertainty>0.03118310414</lowerUncertainty>
        <upperUncertainty>0.03118310414</upperUncertainty>
      </amplitude>
      <timeWindow>
        <reference>2018-12-24T09:45:48.41Z</reference>
        <begin>-1.584999</begin>
        <end>7.415</end>
      </timeWindow>
      <pickID>smi:ch.ethz.sed/coseismiq-pb/Pick/20200703152809.535975.11121</pickID>
      <waveformID networkCode="ON" stationCode="KOLDU" locationCode="00" channelCode="HH"/>
      <creationInfo>
        <agencyID>Swiss Seismological Service</agencyID>
        <author>scamp@sc3-dev</author>
        <creationTime>2020-12-06T13:43:00.132957Z</creationTime>
      </creationInfo>
    </amplitude>
    <amplitude publicID="smi:ch.ethz.sed/coseismiq-pb/Amplitude/20201206134259.025908.19503">
      <type>ML</type>
      <amplitude>
        <value>0.02328763703</value>
        <lowerUncertainty>0.00027629736</lowerUncertainty>
        <upperUncertainty>0.00027629736</upperUncertainty>
      </amplitude>
      <timeWindow>
        <reference>2018-12-24T09:45:49.23Z</reference>
        <begin>-1.984999</begin>
        <end>7.015</end>
      </timeWindow>
      <pickID>smi:ch.ethz.sed/coseismiq-pb/Pick/20200703152809.570901.11128</pickID>
      <waveformID networkCode="2C" stationCode="GAN02" channelCode="HH"/>
      <creationInfo>
        <agencyID>Swiss Seismological Service</agencyID>
        <author>scamp@sc3-dev</author>
        <creationTime>2020-12-06T13:42:59.026134Z</creationTime>
      </creationInfo>
    </amplitude>
    <amplitude publicID="smi:ch.ethz.sed/coseismiq-pb/Amplitude/20201206134300.511967.19506">
      <type>ML</type>
      <amplitude>
        <value>0.481713978</value>
        <lowerUncertainty>0.02350443341</lowerUncertainty>
        <upperUncertainty>0.02350443341</upperUncertainty>
      </amplitude>
      <timeWindow>
        <reference>2018-12-24T09:45:49.3435Z</reference>
        <begin>-2.544999</begin>
        <end>6.455</end>
      </timeWindow>
      <pickID>smi:ch.ethz.sed/coseismiq-pb/Pick/20200703152809.562174.11126</pickID>
      <waveformID networkCode="ON" stationCode="NESJV" locationCode="00" channelCode="HH"/>
      <creationInfo>
        <agencyID>Swiss Seismological Service</agencyID>
        <author>scamp@sc3-dev</author>
        <creationTime>2020-12-06T13:43:00.512099Z</creationTime>
      </creationInfo>
    </amplitude>
    <amplitude publicID="smi:ch.ethz.sed/coseismiq-pb/Amplitude/20201206134302.130912.19510">
      <type>ML</type>
      <amplitude>
        <value>0.007900812627</value>
        <lowerUncertainty>0.001357112312</lowerUncertainty>
        <upperUncertainty>0.001357112312</upperUncertainty>
      </amplitude>
      <timeWindow>
        <reference>2018-12-24T09:45:49.4175Z</reference>
        <begin>-1.432499</begin>
        <end>7.5675</end>
      </timeWindow>
      <pickID>smi:ch.ethz.sed/coseismiq-pb/Pick/20200703152809.600326.11135</pickID>
      <waveformID networkCode="ON" stationCode="INNST" locationCode="00" channelCode="HH"/>
      <creationInfo>
        <agencyID>Swiss Seismological Service</agencyID>
        <author>scamp@sc3-dev</author>
        <creationTime>2020-12-06T13:43:02.131069Z</creationTime>
      </creationInfo>
    </amplitude>
    <amplitude publicID="smi:ch.ethz.sed/coseismiq-pb/Amplitude/20201206134302.523093.19511">
      <type>ML</type>
      <amplitude>
        <value>0.06079515638</value>
        <lowerUncertainty>0.002720181177</lowerUncertainty>
        <upperUncertainty>0.002720181177</upperUncertainty>
      </amplitude>
      <timeWindow>
        <reference>2018-12-24T09:45:49.55Z</reference>
        <begin>-1.049999</begin>
        <end>7.45</end>
      </timeWindow>
      <pickID>smi:ch.ethz.sed/coseismiq-pb/Pick/20200703152809.616349.11139</pickID>
      <waveformID networkCode="2C" stationCode="OLK26" channelCode="EH"/>
      <creationInfo>
        <agencyID>Swiss Seismological Service</agencyID>
        <author>scamp@sc3-dev</author>
        <creationTime>2020-12-06T13:43:02.523212Z</creationTime>
      </creationInfo>
    </amplitude>
    <amplitude publicID="smi:ch.ethz.sed/coseismiq-pb/Amplitude/20201206134301.63181.19509">
      <type>ML</type>
      <amplitude>
        <value>0.01670920521</value>
        <lowerUncertainty>0.001527111191</lowerUncertainty>
        <upperUncertainty>0.001527111191</upperUncertainty>
      </amplitude>
      <timeWindow>
        <reference>2018-12-24T09:45:50.14Z</reference>
        <begin>-2.309999</begin>
        <end>6.69</end>
      </timeWindow>
      <pickID>smi:ch.ethz.sed/coseismiq-pb/Pick/20200703152809.55883.11124</pickID>
      <waveformID networkCode="2C" stationCode="OLF42" locationCode="00" channelCode="HH"/>
      <creationInfo>
        <agencyID>Swiss Seismological Service</agencyID>
        <author>scamp@sc3-dev</author>
        <creationTime>2020-12-06T13:43:01.632026Z</creationTime>
      </creationInfo>
    </amplitude>
    <amplitude publicID="smi:ch.ethz.sed/coseismiq-pb/Amplitude/20201206134259.538332.19504">
      <type>ML</type>
      <amplitude>
        <value>0.04490092046</value>
        <lowerUncertainty>0.01036503549</lowerUncertainty>
        <upperUncertainty>0.01036503549</upperUncertainty>
      </amplitude>
      <timeWindow>
        <reference>2018-12-24T09:45:49.9875Z</reference>
        <begin>-2.257499</begin>
        <end>6.7425</end>
      </timeWindow>
      <pickID>smi:ch.ethz.sed/coseismiq-pb/Pick/20200703152809.59375.11132</pickID>
      <waveformID networkCode="2C" stationCode="KAT03" channelCode="HH"/>
      <creationInfo>
        <agencyID>Swiss Seismological Service</agencyID>
        <author>scamp@sc3-dev</author>
        <creationTime>2020-12-06T13:42:59.538571Z</creationTime>
      </creationInfo>
    </amplitude>
    <origin publicID="smi:ch.ethz.sed/coseismiq-pb/Origin/NLL.20201206133119.829793.16060">
      <time>
        <value>2018-12-24T09:45:41.781206Z</value>
      </time>
      <latitude>
        <value>64.31162408</value>
        <uncertainty>87.50987452</uncertainty>
      </latitude>
      <longitude>
        <value>-20.83128125</value>
        <uncertainty>94.34438885</uncertainty>
      </longitude>
      <depth>
        <value>0.25</value>
        <uncertainty>28.38360118</uncertainty>
      </depth>
      <methodID>NonLinLoc</methodID>
      <earthModelID>Hengill min1D</earthModelID>
      <quality>
        <associatedPhaseCount>11</associatedPhaseCount>
        <usedPhaseCount>11</usedPhaseCount>
        <usedStationCount>9</usedStationCount>
        <standardError>0.03251699814</standardError>
        <azimuthalGap>344.7786843</azimuthalGap>
        <secondaryAzimuthalGap>349.314859</secondaryAzimuthalGap>
        <groundTruthLevel>-</groundTruthLevel>
        <maximumDistance>0.3353076583</maximumDistance>
        <minimumDistance>0.2643620828</minimumDistance>
        <medianDistance>0.3108066421</medianDistance>
      </quality>
      <uncertainty>
        <horizontalUncertainty>191.1927576</horizontalUncertainty>
        <minHorizontalUncertainty>39.12372291</minHorizontalUncertainty>
        <maxHorizontalUncertainty>191.1927576</maxHorizontalUncertainty>
        <azimuthMaxHorizontalUncertainty>47.34082629</azimuthMaxHorizontalUncertainty>
        <confidenceEllipsoid>
          <semiMajorAxisLength>236932.5997</semiMajorAxisLength>
          <semiMinorAxisLength>46728.72708</semiMinorAxisLength>
          <semiIntermediateAxisLength>54552.2751</semiIntermediateAxisLength>
          <majorAxisPlunge>88.56196104</majorAxisPlunge>
          <majorAxisAzimuth>42.65055458</majorAxisAzimuth>
          <majorAxisRotation>117.200356</majorAxisRotation>
        </confidenceEllipsoid>
      </uncertainty>
      <evaluationMode>automatic</evaluationMode>
      <creationInfo>
        <agencyID>Swiss Seismological Service</agencyID>
        <author>screloc@sc3-dev</author>
        <creationTime>2020-12-06T13:31:20.214385Z</creationTime>
      </creationInfo>
      <comment>
        <text>/D</text>
        <id>smi:ch.ethz.sed/originquality/SED.quality</id>
      </comment>
      <comment>
        <text>1</text>
        <id>smi:ch.ethz.sed/originquality/quality.res</id>
      </comment>
      <comment>
        <text>-8507351.992569</text>
        <id>smi:ch.ethz.sed/originquality/quality.evscore</id>
      </comment>
      <arrival>
        <pickID>smi:ch.ethz.sed/coseismiq-pb/Pick/20200703152809.659507.11142</pickID>
        <phase>P</phase>
        <timeCorrection>-0.02</timeCorrection>
        <azimuth>226.7480903</azimuth>
        <distance>0.3353076583</distance>
        <takeOffAngle>26.3</takeOffAngle>
        <timeResidual>0.005900340599</timeResidual>
        <timeUsed>true</timeUsed>
        <horizontalSlownessUsed>false</horizontalSlownessUsed>
        <backazimuthUsed>false</backazimuthUsed>
        <weight>3.365587077</weight>
      </arrival>
      <arrival>
        <pickID>smi:ch.ethz.sed/coseismiq-pb/Pick/20200703152809.600326.11135</pickID>
        <phase>P</phase>
        <timeCorrection>-0.07</timeCorrection>
        <azimuth>221.6391713</azimuth>
        <distance>0.3258191313</distance>
        <takeOffAngle>26.3</takeOffAngle>
        <timeResidual>0.629454919</timeResidual>
        <timeUsed>true</timeUsed>
        <horizontalSlownessUsed>false</horizontalSlownessUsed>
        <backazimuthUsed>false</backazimuthUsed>
        <weight>0.003375348295</weight>
      </arrival>
      <arrival>
        <pickID>smi:ch.ethz.sed/coseismiq-pb/Pick/20200703152809.572559.11130</pickID>
        <phase>S</phase>
        <timeCorrection>-0.21</timeCorrection>
        <azimuth>227.2860298</azimuth>
        <distance>0.3206602402</distance>
        <takeOffAngle>26.1</takeOffAngle>
        <timeResidual>-4.138530717</timeResidual>
        <timeUsed>true</timeUsed>
        <horizontalSlownessUsed>false</horizontalSlownessUsed>
        <backazimuthUsed>false</backazimuthUsed>
        <weight>3.531019782e-167</weight>
      </arrival>
      <arrival>
        <pickID>smi:ch.ethz.sed/coseismiq-pb/Pick/20200703152809.570901.11128</pickID>
        <phase>P</phase>
        <timeCorrection>-0.03</timeCorrection>
        <azimuth>227.2860298</azimuth>
        <distance>0.3206602402</distance>
        <takeOffAngle>26.4</takeOffAngle>
        <timeResidual>-0.001624315247</timeResidual>
        <timeUsed>true</timeUsed>
        <horizontalSlownessUsed>false</horizontalSlownessUsed>
        <backazimuthUsed>false</backazimuthUsed>
        <weight>3.444776615</weight>
      </arrival>
      <arrival>
        <pickID>smi:ch.ethz.sed/coseismiq-pb/Pick/20200703152809.616349.11139</pickID>
        <phase>P</phase>
        <timeCorrection>-0.06</timeCorrection>
        <azimuth>216.6008888</azimuth>
        <distance>0.3108066421</distance>
        <takeOffAngle>26.4</takeOffAngle>
        <timeResidual>0.9130683853</timeResidual>
