<?xml version="1.0" encoding="UTF-8"?>
<seiscomp xmlns="http://geofon.gfz-potsdam.de/ns/seiscomp3-schema/0.11" version="0.11">
  <EventParameters>
    <pick publicID="20181224.123748.12-AIC-2C.KAT03..HHZ">
      <time>
        <value>2018-12-24T12:37:48.12Z</value>
      </time>
      <waveformID networkCode="2C" stationCode="KAT03" channelCode="HHZ"/>
      <filterID>BW(4,2,50)</filterID>
      <methodID>AIC</methodID>
      <phaseHint>P</phaseHint>
      <evaluationMode>automatic</evaluationMode>
      <creationInfo>
        <agencyID>gempa</agencyID>
        <author>l2autopick@gempa-vm</author>
        <creationTime>2021-09-15T14:34:47.322615Z</creationTime>
      </creationInfo>
    </pick>
    <pick publicID="20181224.123749.37-S-AIC-2C.KAT03..HHN">
      <time>
        <value>2018-12-24T12:37:49.375Z</value>
      </time>
      <waveformID networkCode="2C" stationCode="KAT03" channelCode="HHN"/>
      <filterID>BW(3,3,15)</filterID>
      <methodID>L2-AIC-GRID</methodID>
      <phaseHint>S</phaseHint>
      <evaluationMode>automatic</evaluationMode>
      <creationInfo>
        <agencyID>gempa</agencyID>
        <author>l2autopick@gempa-vm</author>
        <creationTime>2021-09-15T14:34:47.32358Z</creationTime>
      </creationInfo>
      <comment>
        <text>20181224.123748.12-AIC-2C.KAT03..HHZ</text>
        <id>RefPickID</id>
      </comment>
    </pick>
    <pick publicID="20181224.123747.90-AIC-2C.OLK26..EHZ">
      <time>
        <value>2018-12-24T12:37:47.905Z</value>
      </time>
      <waveformID networkCode="2C" stationCode="OLK26" channelCode="EHZ"/>
      <filterID>BW(4,2,50)</filterID>
      <methodID>AIC</methodID>
      <phaseHint>P</phaseHint>
      <evaluationMode>automatic</evaluationMode>
      <creationInfo>
        <agencyID>gempa</agencyID>
        <author>l2autopick@gempa-vm</author>
        <creationTime>2021-09-15T14:34:47.325131Z</creationTime>
      </creationInfo>
    </pick>
    <pick publicID="20181224.123749.00-S-AIC-2C.OLK26..EHN">
      <time>
        <value>2018-12-24T12:37:49.005Z</value>
      </time>
      <waveformID networkCode="2C" stationCode="OLK26" channelCode="EHN"/>
      <filterID>BW(3,3,15)</filterID>
      <methodID>L2-AIC-GRID</methodID>
      <phaseHint>S</phaseHint>
      <evaluationMode>automatic</evaluationMode>
      <creationInfo>
        <agencyID>gempa</agencyID>
        <author>l2autopick@gempa-vm</author>
        <creationTime>2021-09-15T14:34:47.326348Z</creationTime>
      </creationInfo>
      <comment>
        <text>20181224.123747.90-AIC-2C.OLK26..EHZ</text>
        <id>RefPickID</id>
      </comment>
    </pick>
    <pick publicID="20181224.123748.26-AIC-2C.THJ07..HHZ">
      <time>
        <value>2018-12-24T12:37:48.26Z</value>
      </time>
      <waveformID networkCode="2C" stationCode="THJ07" channelCode="HHZ"/>
      <filterID>BW(4,2,50)</filterID>
      <methodID>AIC</methodID>
      <phaseHint>P</phaseHint>
      <evaluationMode>automatic</evaluationMode>
      <creationInfo>
        <agencyID>gempa</agencyID>
        <author>l2autopick@gempa-vm</author>
        <creationTime>2021-09-15T14:34:47.327818Z</creationTime>
      </creationInfo>
    </pick>
    <pick publicID="20181224.123749.56-S-AIC-2C.THJ07..HHN">
      <time>
        <value>2018-12-24T12:37:49.565Z</value>
      </time>
      <waveformID networkCode="2C" stationCode="THJ07" channelCode="HHN"/>
      <filterID>BW(3,3,15)</filterID>
      <methodID>L2-AIC-GRID</methodID>
      <phaseHint>S</phaseHint>
      <evaluationMode>automatic</evaluationMode>
      <creationInfo>
        <agencyID>gempa</agencyID>
        <author>l2autopick@gempa-vm</author>
        <creationTime>2021-09-15T14:34:47.329175Z</creationTime>
      </creationInfo>
      <comment>
        <text>20181224.123748.26-AIC-2C.THJ07..HHZ</text>
        <id>RefPickID</id>
      </comment>
    </pick>
    <pick publicID="20181224.123747.99-AIC-2C.GAN02..HHZ">
      <time>
        <value>2018-12-24T12:37:47.99Z</value>
      </time>
      <waveformID networkCode="2C" stationCode="GAN02" channelCode="HHZ"/>
      <filterID>BW(4,2,50)</filterID>
      <methodID>AIC</methodID>
      <phaseHint>P</phaseHint>
      <evaluationMode>automatic</evaluationMode>
      <creationInfo>
        <agencyID>gempa</agencyID>
        <author>l2autopick@gempa-vm</author>
        <creationTime>2021-09-15T14:34:47.330687Z</creationTime>
      </creationInfo>
    </pick>
    <pick publicID="20181224.123748.42-AIC-2C.JAK25..EHZ">
      <time>
        <value>2018-12-24T12:37:48.42Z</value>
      </time>
      <waveformID networkCode="2C" stationCode="JAK25" channelCode="EHZ"/>
      <filterID>BW(4,2,50)</filterID>
      <methodID>AIC</methodID>
      <phaseHint>P</phaseHint>
      <evaluationMode>automatic</evaluationMode>
      <creationInfo>
        <agencyID>gempa</agencyID>
        <author>l2autopick@gempa-vm</author>
        <creationTime>2021-09-15T14:34:47.333072Z</creationTime>
      </creationInfo>
    </pick>
    <pick publicID="20181224.123749.91-S-AIC-2C.JAK25..EHN">
      <time>
        <value>2018-12-24T12:37:49.91Z</value>
      </time>
      <waveformID networkCode="2C" stationCode="JAK25" channelCode="EHN"/>
      <filterID>BW(3,3,15)</filterID>
      <methodID>L2-AIC-GRID</methodID>
      <phaseHint>S</phaseHint>
      <evaluationMode>automatic</evaluationMode>
      <creationInfo>
        <agencyID>gempa</agencyID>
        <author>l2autopick@gempa-vm</author>
        <creationTime>2021-09-15T14:34:47.333946Z</creationTime>
      </creationInfo>
      <comment>
        <text>20181224.123748.42-AIC-2C.JAK25..EHZ</text>
        <id>RefPickID</id>
      </comment>
    </pick>
    <pick publicID="20181224.123748.08-AIC-2C.BIT06..HHZ">
      <time>
        <value>2018-12-24T12:37:48.08Z</value>
      </time>
      <waveformID networkCode="2C" stationCode="BIT06" channelCode="HHZ"/>
      <filterID>BW(4,2,50)</filterID>
      <methodID>AIC</methodID>
      <phaseHint>P</phaseHint>
      <evaluationMode>automatic</evaluationMode>
      <creationInfo>
        <agencyID>gempa</agencyID>
        <author>l2autopick@gempa-vm</author>
        <creationTime>2021-09-15T14:34:47.335418Z</creationTime>
      </creationInfo>
    </pick>
    <pick publicID="20181224.123749.46-S-AIC-2C.BIT06..HHN">
      <time>
        <value>2018-12-24T12:37:49.465Z</value>
      </time>
      <waveformID networkCode="2C" stationCode="BIT06" channelCode="HHN"/>
      <filterID>BW(3,3,15)</filterID>
      <methodID>L2-AIC-GRID</methodID>
      <phaseHint>S</phaseHint>
      <evaluationMode>automatic</evaluationMode>
      <creationInfo>
        <agencyID>gempa</agencyID>
        <author>l2autopick@gempa-vm</author>
        <creationTime>2021-09-15T14:34:47.336439Z</creationTime>
      </creationInfo>
      <comment>
        <text>20181224.123748.08-AIC-2C.BIT06..HHZ</text>
        <id>RefPickID</id>
      </comment>
    </pick>
    <pick publicID="20181224.123748.70-AIC-2C.VAL41.00.HHZ">
      <time>
        <value>2018-12-24T12:37:48.705Z</value>
      </time>
      <waveformID networkCode="2C" stationCode="VAL41" locationCode="00" channelCode="HHZ"/>
      <filterID>BW(4,2,50)</filterID>
      <methodID>AIC</methodID>
      <phaseHint>P</phaseHint>
      <evaluationMode>automatic</evaluationMode>
      <creationInfo>
        <agencyID>gempa</agencyID>
        <author>l2autopick@gempa-vm</author>
        <creationTime>2021-09-15T14:34:47.337795Z</creationTime>
      </creationInfo>
    </pick>
    <pick publicID="20181224.123748.21-AIC-2C.SKA10..HHZ">
      <time>
        <value>2018-12-24T12:37:48.21Z</value>
      </time>
      <waveformID networkCode="2C" stationCode="SKA10" channelCode="HHZ"/>
      <filterID>BW(4,2,50)</filterID>
      <methodID>AIC</methodID>
      <phaseHint>P</phaseHint>
      <evaluationMode>automatic</evaluationMode>
      <creationInfo>
        <agencyID>gempa</agencyID>
        <author>l2autopick@gempa-vm</author>
        <creationTime>2021-09-15T14:34:47.340372Z</creationTime>
      </creationInfo>
    </pick>
    <pick publicID="20181224.123749.55-S-AIC-2C.SKA10..HHN">
      <time>
        <value>2018-12-24T12:37:49.55Z</value>
      </time>
      <waveformID networkCode="2C" stationCode="SKA10" channelCode="HHN"/>
      <filterID>BW(3,3,15)</filterID>
      <methodID>L2-AIC-GRID</methodID>
      <phaseHint>S</phaseHint>
      <evaluationMode>automatic</evaluationMode>
      <creationInfo>
        <agencyID>gempa</agencyID>
        <author>l2autopick@gempa-vm</author>
        <creationTime>2021-09-15T14:34:47.341254Z</creationTime>
      </creationInfo>
      <comment>
        <text>20181224.123748.21-AIC-2C.SKA10..HHZ</text>
        <id>RefPickID</id>
      </comment>
    </pick>
    <pick publicID="20181224.123748.63-AIC-2C.URD20..EHZ">
      <time>
        <value>2018-12-24T12:37:48.635Z</value>
      </time>
      <waveformID networkCode="2C" stationCode="URD20" channelCode="EHZ"/>
      <filterID>BW(4,2,50)</filterID>
      <methodID>AIC</methodID>
      <phaseHint>P</phaseHint>
      <evaluationMode>automatic</evaluationMode>
      <creationInfo>
        <agencyID>gempa</agencyID>
        <author>l2autopick@gempa-vm</author>
        <creationTime>2021-09-15T14:34:47.342665Z</creationTime>
      </creationInfo>
    </pick>
    <pick publicID="20181224.123748.99-AIC-2C.LAK24..EHZ">
      <time>
        <value>2018-12-24T12:37:48.995Z</value>
      </time>
      <waveformID networkCode="2C" stationCode="LAK24" channelCode="EHZ"/>
      <filterID>BW(4,2,50)</filterID>
      <methodID>AIC</methodID>
      <phaseHint>P</phaseHint>
      <evaluationMode>automatic</evaluationMode>
      <creationInfo>
        <agencyID>gempa</agencyID>
        <author>l2autopick@gempa-vm</author>
        <creationTime>2021-09-15T14:34:47.345163Z</creationTime>
      </creationInfo>
    </pick>
    <pick publicID="20181224.123750.84-S-AIC-2C.LAK24..EHN">
      <time>
        <value>2018-12-24T12:37:50.84Z</value>
      </time>
      <waveformID networkCode="2C" stationCode="LAK24" channelCode="EHN"/>
      <filterID>BW(3,3,15)</filterID>
      <methodID>L2-AIC-GRID</methodID>
      <phaseHint>S</phaseHint>
      <evaluationMode>automatic</evaluationMode>
      <creationInfo>
        <agencyID>gempa</agencyID>
        <author>l2autopick@gempa-vm</author>
        <creationTime>2021-09-15T14:34:47.346221Z</creationTime>
      </creationInfo>
      <comment>
        <text>20181224.123748.99-AIC-2C.LAK24..EHZ</text>
        <id>RefPickID</id>
      </comment>
    </pick>
    <pick publicID="20181224.123748.98-AIC-2C.GRH43.00.HHZ">
      <time>
        <value>2018-12-24T12:37:48.985Z</value>
      </time>
      <waveformID networkCode="2C" stationCode="GRH43" locationCode="00" channelCode="HHZ"/>
      <filterID>BW(4,2,50)</filterID>
      <methodID>AIC</methodID>
      <phaseHint>P</phaseHint>
      <evaluationMode>automatic</evaluationMode>
      <creationInfo>
        <agencyID>gempa</agencyID>
        <author>l2autopick@gempa-vm</author>
        <creationTime>2021-09-15T14:34:47.347595Z</creationTime>
      </creationInfo>
    </pick>
    <pick publicID="20181224.123748.11-AIC-2C.OLF42.00.HHZ">
      <time>
        <value>2018-12-24T12:37:48.11Z</value>
      </time>
      <waveformID networkCode="2C" stationCode="OLF42" locationCode="00" channelCode="HHZ"/>
      <filterID>BW(4,2,50)</filterID>
      <methodID>AIC</methodID>
      <phaseHint>P</phaseHint>
      <evaluationMode>automatic</evaluationMode>
      <creationInfo>
        <agencyID>gempa</agencyID>
        <author>l2autopick@gempa-vm</author>
        <creationTime>2021-09-15T14:34:47.350079Z</creationTime>
      </creationInfo>
    </pick>
    <pick publicID="20181224.123749.31-S-AIC-2C.OLF42.00.HHN">
      <time>
        <value>2018-12-24T12:37:49.315Z</value>
      </time>
      <waveformID networkCode="2C" stationCode="OLF42" locationCode="00" channelCode="HHN"/>
      <filterID>BW(3,3,15)</filterID>
      <methodID>L2-AIC-GRID</methodID>
      <phaseHint>S</phaseHint>
      <evaluationMode>automatic</evaluationMode>
      <creationInfo>
        <agencyID>gempa</agencyID>
        <author>l2autopick@gempa-vm</author>
        <creationTime>2021-09-15T14:34:47.351131Z</creationTime>
      </creationInfo>
      <comment>
        <text>20181224.123748.11-AIC-2C.OLF42.00.HHZ</text>
        <id>RefPickID</id>
      </comment>
    </pick>
    <pick publicID="20181224.123749.07-AIC-2C.THU04..HHZ">
      <time>
        <value>2018-12-24T12:37:49.07Z</value>
      </time>
      <waveformID networkCode="2C" stationCode="THU04" channelCode="HHZ"/>
      <filterID>BW(4,2,50)</filterID>
      <methodID>AIC</methodID>
      <phaseHint>P</phaseHint>
      <evaluationMode>automatic</evaluationMode>
      <creationInfo>
        <agencyID>gempa</agencyID>
        <author>l2autopick@gempa-vm</author>
        <creationTime>2021-09-15T14:34:47.352522Z</creationTime>
      </creationInfo>
    </pick>
    <pick publicID="20181224.123748.98-AIC-2C.BLK22..EHZ">
      <time>
        <value>2018-12-24T12:37:48.98Z</value>
      </time>
      <waveformID networkCode="2C" stationCode="BLK22" channelCode="EHZ"/>
      <filterID>BW(4,2,50)</filterID>
      <methodID>AIC</methodID>
      <phaseHint>P</phaseHint>
      <evaluationMode>automatic</evaluationMode>
      <creationInfo>
        <agencyID>gempa</agencyID>
        <author>l2autopick@gempa-vm</author>
        <creationTime>2021-09-15T14:34:47.355116Z</creationTime>
      </creationInfo>
    </pick>
    <pick publicID="20181224.123748.64-AIC-2C.OHO23..EHZ">
      <time>
        <value>2018-12-24T12:37:48.645Z</value>
      </time>
      <waveformID networkCode="2C" stationCode="OHO23" channelCode="EHZ"/>
      <filterID>BW(4,2,50)</filterID>
      <methodID>AIC</methodID>
      <phaseHint>P</phaseHint>
      <evaluationMode>automatic</evaluationMode>
      <creationInfo>
        <agencyID>gempa</agencyID>
        <author>l2autopick@gempa-vm</author>
        <creationTime>2021-09-15T14:34:47.358588Z</creationTime>
      </creationInfo>
    </pick>
    <pick publicID="20181224.123750.40-S-AIC-2C.OHO23..EHN">
      <time>
        <value>2018-12-24T12:37:50.405Z</value>
      </time>
      <waveformID networkCode="2C" stationCode="OHO23" channelCode="EHN"/>
      <filterID>BW(3,3,15)</filterID>
      <methodID>L2-AIC-GRID</methodID>
      <phaseHint>S</phaseHint>
      <evaluationMode>automatic</evaluationMode>
      <creationInfo>
        <agencyID>gempa</agencyID>
        <author>l2autopick@gempa-vm</author>
        <creationTime>2021-09-15T14:34:47.359772Z</creationTime>
      </creationInfo>
      <comment>
        <text>20181224.123748.64-AIC-2C.OHO23..EHZ</text>
        <id>RefPickID</id>
      </comment>
    </pick>
    <pick publicID="20181224.123750.92-S-AIC-2C.BLK22..EHN">
      <time>
        <value>2018-12-24T12:37:50.92Z</value>
      </time>
      <waveformID networkCode="2C" stationCode="BLK22" channelCode="EHN"/>
      <filterID>BW(3,3,15)</filterID>
      <methodID>L2-AIC-GRID</methodID>
      <phaseHint>S</phaseHint>
      <evaluationMode>automatic</evaluationMode>
      <creationInfo>
        <agencyID>gempa</agencyID>
        <author>l2autopick@gempa-vm</author>
        <creationTime>2021-09-15T14:34:47.360811Z</creationTime>
      </creationInfo>
      <comment>
        <text>20181224.123748.98-AIC-2C.BLK22..EHZ</text>
        <id>RefPickID</id>
      </comment>
    </pick>
    <pick publicID="20181224.123748.63-AIC-2C.THF21..EHZ">
      <time>
        <value>2018-12-24T12:37:48.63Z</value>
      </time>
      <waveformID networkCode="2C" stationCode="THF21" channelCode="EHZ"/>
      <filterID>BW(4,2,50)</filterID>
      <methodID>AIC</methodID>
      <phaseHint>P</phaseHint>
      <evaluationMode>automatic</evaluationMode>
      <creationInfo>
        <agencyID>gempa</agencyID>
        <author>l2autopick@gempa-vm</author>
        <creationTime>2021-09-15T14:34:47.361158Z</creationTime>
      </creationInfo>
    </pick>
    <pick publicID="20181224.123750.07-S-AIC-2C.THF21..EHN">
      <time>
        <value>2018-12-24T12:37:50.075Z</value>
      </time>
      <waveformID networkCode="2C" stationCode="THF21" channelCode="EHN"/>
      <filterID>BW(3,3,15)</filterID>
      <methodID>L2-AIC-GRID</methodID>
      <phaseHint>S</phaseHint>
      <evaluationMode>automatic</evaluationMode>
      <creationInfo>
        <agencyID>gempa</agencyID>
        <author>l2autopick@gempa-vm</author>
        <creationTime>2021-09-15T14:34:47.362085Z</creationTime>
      </creationInfo>
      <comment>
        <text>20181224.123748.63-AIC-2C.THF21..EHZ</text>
        <id>RefPickID</id>
      </comment>
    </pick>
    <pick publicID="20181224.123749.16-AIC-2C.LHA40.00.HHZ">
      <time>
        <value>2018-12-24T12:37:49.16Z</value>
      </time>
      <waveformID networkCode="2C" stationCode="LHA40" locationCode="00" channelCode="HHZ"/>
      <filterID>BW(4,2,50)</filterID>
      <methodID>AIC</methodID>
      <phaseHint>P</phaseHint>
      <evaluationMode>automatic</evaluationMode>
      <creationInfo>
        <agencyID>gempa</agencyID>
        <author>l2autopick@gempa-vm</author>
        <creationTime>2021-09-15T14:34:47.363497Z</creationTime>
      </creationInfo>
    </pick>
    <pick publicID="20181224.123748.80-AIC-2C.REY09..HHZ">
      <time>
        <value>2018-12-24T12:37:48.8Z</value>
      </time>
      <waveformID networkCode="2C" stationCode="REY09" channelCode="HHZ"/>
      <filterID>BW(4,2,50)</filterID>
      <methodID>AIC</methodID>
      <phaseHint>P</phaseHint>
      <evaluationMode>automatic</evaluationMode>
      <creationInfo>
        <agencyID>gempa</agencyID>
        <author>l2autopick@gempa-vm</author>
        <creationTime>2021-09-15T14:34:47.365567Z</creationTime>
      </creationInfo>
    </pick>
    <pick publicID="20181224.123750.45-S-AIC-2C.REY09..HHN">
      <time>
        <value>2018-12-24T12:37:50.455Z</value>
      </time>
      <waveformID networkCode="2C" stationCode="REY09" channelCode="HHN"/>
      <filterID>BW(3,3,15)</filterID>
      <methodID>L2-AIC-GRID</methodID>
      <phaseHint>S</phaseHint>
      <evaluationMode>automatic</evaluationMode>
      <creationInfo>
        <agencyID>gempa</agencyID>
        <author>l2autopick@gempa-vm</author>
        <creationTime>2021-09-15T14:34:47.366473Z</creationTime>
      </creationInfo>
      <comment>
        <text>20181224.123748.80-AIC-2C.REY09..HHZ</text>
        <id>RefPickID</id>
      </comment>
    </pick>
    <pick publicID="20181224.123751.23-S-AIC-2C.LHA40.00.HHN">
      <time>
        <value>2018-12-24T12:37:51.235Z</value>
      </time>
      <waveformID networkCode="2C" stationCode="LHA40" locationCode="00" channelCode="HHN"/>
      <filterID>BW(3,3,15)</filterID>
      <methodID>L2-AIC-GRID</methodID>
      <phaseHint>S</phaseHint>
      <evaluationMode>automatic</evaluationMode>
      <creationInfo>
        <agencyID>gempa</agencyID>
        <author>l2autopick@gempa-vm</author>
        <creationTime>2021-09-15T14:34:47.367654Z</creationTime>
      </creationInfo>
      <comment>
        <text>20181224.123749.16-AIC-2C.LHA40.00.HHZ</text>
        <id>RefPickID</id>
      </comment>
    </pick>
    <pick publicID="20181224.123751.16-S-AIC-2C.THU04..HHN">
      <time>
        <value>2018-12-24T12:37:51.16Z</value>
      </time>
      <waveformID networkCode="2C" stationCode="THU04" channelCode="HHN"/>
      <filterID>BW(3,3,15)</filterID>
      <methodID>L2-AIC-GRID</methodID>
      <phaseHint>S</phaseHint>
      <evaluationMode>automatic</evaluationMode>
      <creationInfo>
        <agencyID>gempa</agencyID>
        <author>l2autopick@gempa-vm</author>
        <creationTime>2021-09-15T14:34:47.3682Z</creationTime>
      </creationInfo>
      <comment>
        <text>20181224.123749.07-AIC-2C.THU04..HHZ</text>
        <id>RefPickID</id>
      </comment>
    </pick>
    <pick publicID="20181224.123749.43-AIC-2C.MEI05..HHZ">
      <time>
