<?xml version="1.0" encoding="UTF-8"?>
<seiscomp xmlns="http://geofon.gfz-potsdam.de/ns/seiscomp3-schema/0.11" version="0.11">
  <EventParameters>
    <pick publicID="20181224.094257.69-AIC-2C.URD20..EHZ">
      <time>
        <value>2018-12-24T09:42:57.695Z</value>
      </time>
      <waveformID networkCode="2C" stationCode="URD20" channelCode="EHZ"/>
      <filterID>BW(4,2,50)</filterID>
      <methodID>AIC</methodID>
      <phaseHint>P</phaseHint>
      <evaluationMode>automatic</evaluationMode>
      <creationInfo>
        <agencyID>gempa</agencyID>
        <author>l2autopick@gempa-vm</author>
        <creationTime>2021-09-14T14:07:20.117085Z</creationTime>
      </creationInfo>
    </pick>
    <pick publicID="20181224.094359.92-AIC-2C.LAM08..HHZ">
      <time>
        <value>2018-12-24T09:43:59.92Z</value>
      </time>
      <waveformID networkCode="2C" stationCode="LAM08" channelCode="HHZ"/>
      <filterID>BW(4,2,50)</filterID>
      <methodID>AIC</methodID>
      <phaseHint>P</phaseHint>
      <evaluationMode>automatic</evaluationMode>
      <creationInfo>
        <agencyID>gempa</agencyID>
        <author>l2autopick@gempa-vm</author>
        <creationTime>2021-09-14T14:07:20.177303Z</creationTime>
      </creationInfo>
    </pick>
    <pick publicID="20181224.094419.77-AIC-2C.URD20..EHZ">
      <time>
        <value>2018-12-24T09:44:19.77Z</value>
      </time>
      <waveformID networkCode="2C" stationCode="URD20" channelCode="EHZ"/>
      <filterID>BW(4,2,50)</filterID>
      <methodID>AIC</methodID>
      <phaseHint>P</phaseHint>
      <evaluationMode>automatic</evaluationMode>
      <creationInfo>
        <agencyID>gempa</agencyID>
        <author>l2autopick@gempa-vm</author>
        <creationTime>2021-09-14T14:07:20.194051Z</creationTime>
      </creationInfo>
    </pick>
    <pick publicID="20181224.094420.64-S-AIC-2C.URD20..EHN">
      <time>
        <value>2018-12-24T09:44:20.645Z</value>
      </time>
      <waveformID networkCode="2C" stationCode="URD20" channelCode="EHN"/>
      <filterID>BW(3,3,15)</filterID>
      <methodID>L2-AIC-GRID</methodID>
      <phaseHint>S</phaseHint>
      <evaluationMode>automatic</evaluationMode>
      <creationInfo>
        <agencyID>gempa</agencyID>
        <author>l2autopick@gempa-vm</author>
        <creationTime>2021-09-14T14:07:20.194959Z</creationTime>
      </creationInfo>
      <comment>
        <text>20181224.094419.77-AIC-2C.URD20..EHZ</text>
        <id>RefPickID</id>
      </comment>
    </pick>
    <pick publicID="20181224.094432.74-AIC-2C.URD20..EHZ">
      <time>
        <value>2018-12-24T09:44:32.745Z</value>
      </time>
      <waveformID networkCode="2C" stationCode="URD20" channelCode="EHZ"/>
      <filterID>BW(4,2,50)</filterID>
      <methodID>AIC</methodID>
      <phaseHint>P</phaseHint>
      <evaluationMode>automatic</evaluationMode>
      <creationInfo>
        <agencyID>gempa</agencyID>
        <author>l2autopick@gempa-vm</author>
        <creationTime>2021-09-14T14:07:20.208553Z</creationTime>
      </creationInfo>
    </pick>
    <pick publicID="20181224.094507.40-AIC-2C.URD20..EHZ">
      <time>
        <value>2018-12-24T09:45:07.4Z</value>
      </time>
      <waveformID networkCode="2C" stationCode="URD20" channelCode="EHZ"/>
      <filterID>BW(4,2,50)</filterID>
      <methodID>AIC</methodID>
      <phaseHint>P</phaseHint>
      <evaluationMode>automatic</evaluationMode>
      <creationInfo>
        <agencyID>gempa</agencyID>
        <author>l2autopick@gempa-vm</author>
        <creationTime>2021-09-14T14:07:20.244838Z</creationTime>
      </creationInfo>
    </pick>
    <pick publicID="20181224.094547.68-AIC-ON.SKEGG.00.HHZ">
      <time>
        <value>2018-12-24T09:45:47.68Z</value>
      </time>
      <waveformID networkCode="ON" stationCode="SKEGG" locationCode="00" channelCode="HHZ"/>
      <filterID>BW(4,2,50)</filterID>
      <methodID>AIC</methodID>
      <phaseHint>P</phaseHint>
      <evaluationMode>automatic</evaluationMode>
      <creationInfo>
        <agencyID>gempa</agencyID>
        <author>l2autopick@gempa-vm</author>
        <creationTime>2021-09-14T14:07:20.295918Z</creationTime>
      </creationInfo>
    </pick>
    <pick publicID="20181224.094547.90-AIC-ON.GRAFN.00.HHZ">
      <time>
        <value>2018-12-24T09:45:47.9036Z</value>
      </time>
      <waveformID networkCode="ON" stationCode="GRAFN" locationCode="00" channelCode="HHZ"/>
      <filterID>BW(4,2,50)</filterID>
      <methodID>AIC</methodID>
      <phaseHint>P</phaseHint>
      <evaluationMode>automatic</evaluationMode>
      <creationInfo>
        <agencyID>gempa</agencyID>
        <author>l2autopick@gempa-vm</author>
        <creationTime>2021-09-14T14:07:20.298661Z</creationTime>
      </creationInfo>
    </pick>
    <pick publicID="20181224.094547.82-AIC-ON.KOLDU.00.HHZ">
      <time>
        <value>2018-12-24T09:45:47.825Z</value>
      </time>
      <waveformID networkCode="ON" stationCode="KOLDU" locationCode="00" channelCode="HHZ"/>
      <filterID>BW(4,2,50)</filterID>
      <methodID>AIC</methodID>
      <phaseHint>P</phaseHint>
      <evaluationMode>automatic</evaluationMode>
      <creationInfo>
        <agencyID>gempa</agencyID>
        <author>l2autopick@gempa-vm</author>
        <creationTime>2021-09-14T14:07:20.301467Z</creationTime>
      </creationInfo>
    </pick>
    <pick publicID="20181224.094548.39-S-AIC-ON.KOLDU.00.HHN">
      <time>
        <value>2018-12-24T09:45:48.395Z</value>
      </time>
      <waveformID networkCode="ON" stationCode="KOLDU" locationCode="00" channelCode="HHN"/>
      <filterID>BW(3,3,15)</filterID>
      <methodID>L2-AIC-GRID</methodID>
      <phaseHint>S</phaseHint>
      <evaluationMode>automatic</evaluationMode>
      <creationInfo>
        <agencyID>gempa</agencyID>
        <author>l2autopick@gempa-vm</author>
        <creationTime>2021-09-14T14:07:20.302623Z</creationTime>
      </creationInfo>
      <comment>
        <text>20181224.094547.82-AIC-ON.KOLDU.00.HHZ</text>
        <id>RefPickID</id>
      </comment>
    </pick>
    <pick publicID="20181224.094548.83-AIC-2C.OLF42.00.HHZ">
      <time>
        <value>2018-12-24T09:45:48.83Z</value>
      </time>
      <waveformID networkCode="2C" stationCode="OLF42" locationCode="00" channelCode="HHZ"/>
      <filterID>BW(4,2,50)</filterID>
      <methodID>AIC</methodID>
      <phaseHint>P</phaseHint>
      <evaluationMode>automatic</evaluationMode>
      <creationInfo>
        <agencyID>gempa</agencyID>
        <author>l2autopick@gempa-vm</author>
        <creationTime>2021-09-14T14:07:20.305163Z</creationTime>
      </creationInfo>
    </pick>
    <pick publicID="20181224.094549.89-S-AIC-2C.OLF42.00.HHN">
      <time>
        <value>2018-12-24T09:45:49.89Z</value>
      </time>
      <waveformID networkCode="2C" stationCode="OLF42" locationCode="00" channelCode="HHN"/>
      <filterID>BW(3,3,15)</filterID>
      <methodID>L2-AIC-GRID</methodID>
      <phaseHint>S</phaseHint>
      <evaluationMode>automatic</evaluationMode>
      <creationInfo>
        <agencyID>gempa</agencyID>
        <author>l2autopick@gempa-vm</author>
        <creationTime>2021-09-14T14:07:20.306321Z</creationTime>
      </creationInfo>
      <comment>
        <text>20181224.094548.83-AIC-2C.OLF42.00.HHZ</text>
        <id>RefPickID</id>
      </comment>
    </pick>
    <pick publicID="20181224.094548.24-AIC-2C.GAN02..HHZ">
      <time>
        <value>2018-12-24T09:45:48.245Z</value>
      </time>
      <waveformID networkCode="2C" stationCode="GAN02" channelCode="HHZ"/>
      <filterID>BW(4,2,50)</filterID>
      <methodID>AIC</methodID>
      <phaseHint>P</phaseHint>
      <evaluationMode>automatic</evaluationMode>
      <creationInfo>
        <agencyID>gempa</agencyID>
        <author>l2autopick@gempa-vm</author>
        <creationTime>2021-09-14T14:07:20.308418Z</creationTime>
      </creationInfo>
    </pick>
    <pick publicID="20181224.094549.18-S-AIC-2C.GAN02..HHN">
      <time>
        <value>2018-12-24T09:45:49.185Z</value>
      </time>
      <waveformID networkCode="2C" stationCode="GAN02" channelCode="HHN"/>
      <filterID>BW(3,3,15)</filterID>
      <methodID>L2-AIC-GRID</methodID>
      <phaseHint>S</phaseHint>
      <evaluationMode>automatic</evaluationMode>
      <creationInfo>
        <agencyID>gempa</agencyID>
        <author>l2autopick@gempa-vm</author>
        <creationTime>2021-09-14T14:07:20.30943Z</creationTime>
      </creationInfo>
      <comment>
        <text>20181224.094548.24-AIC-2C.GAN02..HHZ</text>
        <id>RefPickID</id>
      </comment>
    </pick>
    <pick publicID="20181224.094548.68-AIC-2C.KAT03..HHZ">
      <time>
        <value>2018-12-24T09:45:48.68Z</value>
      </time>
      <waveformID networkCode="2C" stationCode="KAT03" channelCode="HHZ"/>
      <filterID>BW(4,2,50)</filterID>
      <methodID>AIC</methodID>
      <phaseHint>P</phaseHint>
      <evaluationMode>automatic</evaluationMode>
      <creationInfo>
        <agencyID>gempa</agencyID>
        <author>l2autopick@gempa-vm</author>
        <creationTime>2021-09-14T14:07:20.311518Z</creationTime>
      </creationInfo>
    </pick>
    <pick publicID="20181224.094549.70-S-AIC-2C.KAT03..HHN">
      <time>
        <value>2018-12-24T09:45:49.7Z</value>
      </time>
      <waveformID networkCode="2C" stationCode="KAT03" channelCode="HHN"/>
      <filterID>BW(3,3,15)</filterID>
      <methodID>L2-AIC-GRID</methodID>
      <phaseHint>S</phaseHint>
      <evaluationMode>automatic</evaluationMode>
      <creationInfo>
        <agencyID>gempa</agencyID>
        <author>l2autopick@gempa-vm</author>
        <creationTime>2021-09-14T14:07:20.312544Z</creationTime>
      </creationInfo>
      <comment>
        <text>20181224.094548.68-AIC-2C.KAT03..HHZ</text>
        <id>RefPickID</id>
      </comment>
    </pick>
    <pick publicID="20181224.094549.48-AIC-2C.SKA10..HHZ">
      <time>
        <value>2018-12-24T09:45:49.48Z</value>
      </time>
      <waveformID networkCode="2C" stationCode="SKA10" channelCode="HHZ"/>
      <filterID>BW(4,2,50)</filterID>
      <methodID>AIC</methodID>
      <phaseHint>P</phaseHint>
      <evaluationMode>automatic</evaluationMode>
      <creationInfo>
        <agencyID>gempa</agencyID>
        <author>l2autopick@gempa-vm</author>
        <creationTime>2021-09-14T14:07:20.314735Z</creationTime>
      </creationInfo>
    </pick>
    <pick publicID="20181224.094549.85-S-AIC-2C.SKA10..HHN">
      <time>
        <value>2018-12-24T09:45:49.855Z</value>
      </time>
      <waveformID networkCode="2C" stationCode="SKA10" channelCode="HHN"/>
      <filterID>BW(3,3,15)</filterID>
      <methodID>L2-AIC-GRID</methodID>
      <phaseHint>S</phaseHint>
      <evaluationMode>automatic</evaluationMode>
      <creationInfo>
        <agencyID>gempa</agencyID>
        <author>l2autopick@gempa-vm</author>
        <creationTime>2021-09-14T14:07:20.315807Z</creationTime>
      </creationInfo>
      <comment>
        <text>20181224.094549.48-AIC-2C.SKA10..HHZ</text>
        <id>RefPickID</id>
      </comment>
    </pick>
    <pick publicID="20181224.094548.98-AIC-ON.INNST.00.HHZ">
      <time>
        <value>2018-12-24T09:45:48.984999Z</value>
      </time>
      <waveformID networkCode="ON" stationCode="INNST" locationCode="00" channelCode="HHZ"/>
      <filterID>BW(4,2,50)</filterID>
      <methodID>AIC</methodID>
      <phaseHint>P</phaseHint>
      <evaluationMode>automatic</evaluationMode>
      <creationInfo>
        <agencyID>gempa</agencyID>
        <author>l2autopick@gempa-vm</author>
        <creationTime>2021-09-14T14:07:20.318027Z</creationTime>
      </creationInfo>
    </pick>
    <pick publicID="20181224.094549.28-S-AIC-ON.INNST.00.HHN">
      <time>
        <value>2018-12-24T09:45:49.289999Z</value>
      </time>
      <waveformID networkCode="ON" stationCode="INNST" locationCode="00" channelCode="HHN"/>
      <filterID>BW(3,3,15)</filterID>
      <methodID>L2-AIC-GRID</methodID>
      <phaseHint>S</phaseHint>
      <evaluationMode>automatic</evaluationMode>
      <creationInfo>
        <agencyID>gempa</agencyID>
        <author>l2autopick@gempa-vm</author>
        <creationTime>2021-09-14T14:07:20.319679Z</creationTime>
      </creationInfo>
      <comment>
        <text>20181224.094548.98-AIC-ON.INNST.00.HHZ</text>
        <id>RefPickID</id>
      </comment>
    </pick>
    <pick publicID="20181224.094549.00-AIC-2C.OLK26..EHZ">
      <time>
        <value>2018-12-24T09:45:49.0000Z</value>
      </time>
      <waveformID networkCode="2C" stationCode="OLK26" channelCode="EHZ"/>
      <filterID>BW(4,2,50)</filterID>
      <methodID>AIC</methodID>
      <phaseHint>P</phaseHint>
      <evaluationMode>automatic</evaluationMode>
      <creationInfo>
        <agencyID>gempa</agencyID>
        <author>l2autopick@gempa-vm</author>
        <creationTime>2021-09-14T14:07:20.322077Z</creationTime>
      </creationInfo>
    </pick>
    <pick publicID="20181224.094549.32-S-AIC-2C.OLK26..EHN">
      <time>
        <value>2018-12-24T09:45:49.325Z</value>
      </time>
      <waveformID networkCode="2C" stationCode="OLK26" channelCode="EHN"/>
      <filterID>BW(3,3,15)</filterID>
      <methodID>L2-AIC-GRID</methodID>
      <phaseHint>S</phaseHint>
      <evaluationMode>automatic</evaluationMode>
      <creationInfo>
        <agencyID>gempa</agencyID>
        <author>l2autopick@gempa-vm</author>
        <creationTime>2021-09-14T14:07:20.323368Z</creationTime>
      </creationInfo>
      <comment>
        <text>20181224.094549.00-AIC-2C.OLK26..EHZ</text>
        <id>RefPickID</id>
      </comment>
    </pick>
    <pick publicID="20181224.094608.13-AIC-ON.SKEGG.00.HHZ">
      <time>
        <value>2018-12-24T09:46:08.13Z</value>
      </time>
      <waveformID networkCode="ON" stationCode="SKEGG" locationCode="00" channelCode="HHZ"/>
      <filterID>BW(4,2,50)</filterID>
      <methodID>AIC</methodID>
      <phaseHint>P</phaseHint>
      <evaluationMode>automatic</evaluationMode>
      <creationInfo>
        <agencyID>gempa</agencyID>
        <author>l2autopick@gempa-vm</author>
        <creationTime>2021-09-14T14:07:20.341765Z</creationTime>
      </creationInfo>
    </pick>
    <pick publicID="20181224.094608.71-S-AIC-ON.SKEGG.00.HHN">
      <time>
        <value>2018-12-24T09:46:08.71Z</value>
      </time>
      <waveformID networkCode="ON" stationCode="SKEGG" locationCode="00" channelCode="HHN"/>
      <filterID>BW(3,3,15)</filterID>
      <methodID>L2-AIC-GRID</methodID>
      <phaseHint>S</phaseHint>
      <evaluationMode>automatic</evaluationMode>
      <creationInfo>
        <agencyID>gempa</agencyID>
        <author>l2autopick@gempa-vm</author>
        <creationTime>2021-09-14T14:07:20.34282Z</creationTime>
      </creationInfo>
      <comment>
        <text>20181224.094608.13-AIC-ON.SKEGG.00.HHZ</text>
        <id>RefPickID</id>
      </comment>
    </pick>
    <pick publicID="20181224.094609.27-AIC-2C.OLF42.00.HHZ">
      <time>
        <value>2018-12-24T09:46:09.27Z</value>
      </time>
      <waveformID networkCode="2C" stationCode="OLF42" locationCode="00" channelCode="HHZ"/>
      <filterID>BW(4,2,50)</filterID>
      <methodID>AIC</methodID>
      <phaseHint>P</phaseHint>
      <evaluationMode>automatic</evaluationMode>
      <creationInfo>
        <agencyID>gempa</agencyID>
        <author>l2autopick@gempa-vm</author>
        <creationTime>2021-09-14T14:07:20.344365Z</creationTime>
      </creationInfo>
    </pick>
    <pick publicID="20181224.094608.27-AIC-ON.KOLDU.00.HHZ">
      <time>
        <value>2018-12-24T09:46:08.27Z</value>
      </time>
      <waveformID networkCode="ON" stationCode="KOLDU" locationCode="00" channelCode="HHZ"/>
      <filterID>BW(4,2,50)</filterID>
      <methodID>AIC</methodID>
      <phaseHint>P</phaseHint>
      <evaluationMode>automatic</evaluationMode>
      <creationInfo>
        <agencyID>gempa</agencyID>
        <author>l2autopick@gempa-vm</author>
        <creationTime>2021-09-14T14:07:20.346787Z</creationTime>
      </creationInfo>
    </pick>
    <pick publicID="20181224.094608.81-S-AIC-ON.KOLDU.00.HHN">
      <time>
        <value>2018-12-24T09:46:08.81Z</value>
      </time>
      <waveformID networkCode="ON" stationCode="KOLDU" locationCode="00" channelCode="HHN"/>
      <filterID>BW(3,3,15)</filterID>
      <methodID>L2-AIC-GRID</methodID>
      <phaseHint>S</phaseHint>
      <evaluationMode>automatic</evaluationMode>
      <creationInfo>
        <agencyID>gempa</agencyID>
        <author>l2autopick@gempa-vm</author>
        <creationTime>2021-09-14T14:07:20.347885Z</creationTime>
      </creationInfo>
      <comment>
        <text>20181224.094608.27-AIC-ON.KOLDU.00.HHZ</text>
        <id>RefPickID</id>
      </comment>
    </pick>
    <pick publicID="20181224.094609.39-AIC-2C.OLK26..EHZ">
      <time>
        <value>2018-12-24T09:46:09.395Z</value>
      </time>
      <waveformID networkCode="2C" stationCode="OLK26" channelCode="EHZ"/>
      <filterID>BW(4,2,50)</filterID>
      <methodID>AIC</methodID>
      <phaseHint>P</phaseHint>
      <evaluationMode>automatic</evaluationMode>
      <creationInfo>
        <agencyID>gempa</agencyID>
        <author>l2autopick@gempa-vm</author>
        <creationTime>2021-09-14T14:07:20.349477Z</creationTime>
      </creationInfo>
    </pick>
    <pick publicID="20181224.094609.74-S-AIC-2C.OLK26..EHN">
      <time>
        <value>2018-12-24T09:46:09.745Z</value>
      </time>
      <waveformID networkCode="2C" stationCode="OLK26" channelCode="EHN"/>
      <filterID>BW(3,3,15)</filterID>
      <methodID>L2-AIC-GRID</methodID>
      <phaseHint>S</phaseHint>
      <evaluationMode>automatic</evaluationMode>
      <creationInfo>
        <agencyID>gempa</agencyID>
        <author>l2autopick@gempa-vm</author>
        <creationTime>2021-09-14T14:07:20.350358Z</creationTime>
      </creationInfo>
      <comment>
        <text>20181224.094609.39-AIC-2C.OLK26..EHZ</text>
        <id>RefPickID</id>
      </comment>
    </pick>
    <pick publicID="20181224.094608.34-AIC-ON.GRAFN.00.HHZ">
      <time>
        <value>2018-12-24T09:46:08.3436Z</value>
      </time>
      <waveformID networkCode="ON" stationCode="GRAFN" locationCode="00" channelCode="HHZ"/>
      <filterID>BW(4,2,50)</filterID>
      <methodID>AIC</methodID>
      <phaseHint>P</phaseHint>
      <evaluationMode>automatic</evaluationMode>
      <creationInfo>
        <agencyID>gempa</agencyID>
        <author>l2autopick@gempa-vm</author>
        <creationTime>2021-09-14T14:07:20.352235Z</creationTime>
      </creationInfo>
    </pick>
    <pick publicID="20181224.094608.65-S-AIC-ON.GRAFN.00.HHN">
      <time>
        <value>2018-12-24T09:46:08.6536Z</value>
      </time>
      <waveformID networkCode="ON" stationCode="GRAFN" locationCode="00" channelCode="HHN"/>
      <filterID>BW(3,3,15)</filterID>
      <methodID>L2-AIC-GRID</methodID>
      <phaseHint>S</phaseHint>
      <evaluationMode>automatic</evaluationMode>
      <creationInfo>
        <agencyID>gempa</agencyID>
        <author>l2autopick@gempa-vm</author>
        <creationTime>2021-09-14T14:07:20.353522Z</creationTime>
      </creationInfo>
      <comment>
        <text>20181224.094608.34-AIC-ON.GRAFN.00.HHZ</text>
        <id>RefPickID</id>
      </comment>
    </pick>
    <pick publicID="20181224.094608.69-AIC-2C.GAN02..HHZ">
      <time>
        <value>2018-12-24T09:46:08.69Z</value>
      </time>
      <waveformID networkCode="2C" stationCode="GAN02" channelCode="HHZ"/>
      <filterID>BW(4,2,50)</filterID>
      <methodID>AIC</methodID>
      <phaseHint>P</phaseHint>
      <evaluationMode>automatic</evaluationMode>
      <creationInfo>
        <agencyID>gempa</agencyID>
        <author>l2autopick@gempa-vm</author>
        <creationTime>2021-09-14T14:07:20.355036Z</creationTime>
      </creationInfo>
    </pick>
    <pick publicID="20181224.094609.63-S-AIC-2C.GAN02..HHN">
      <time>
        <value>2018-12-24T09:46:09.635Z</value>
      </time>
